OCO 2                   
1 40059U 14035A   26094.26685190  .00000897  00000+0  20913-3 0  9990
2 40059  98.1966  36.7093 0001584  90.5748 269.5632 14.57127116625289
BRITE-PL2 (HEWELIUSZ)   
1 40119U 14049B   26094.25356084  .00004735  00000+0  44524-3 0  9997
2 40119  97.9006 205.7361 0013835   1.3674 358.7582 14.94321467630405
MMS 1                   
1 40482U 15011A   26094.25002315 -.00001255  00000+0  00000+0 0  9997
2 40482  71.1346 349.8029 8386441 165.8179 316.5416  0.28338620  1300
MMS 2                   
1 40483U 15011B   26094.25002315 -.00001255  00000+0  00000+0 0  9998
2 40483  71.1348 349.8051 8387189 165.8239 316.5264  0.28338619  1304
MMS 3                   
1 40484U 15011C   26094.25002315 -.00001255  00000+0  00000+0 0  9999
2 40484  71.1374 349.8097 8386443 165.8182 316.5312  0.28338575  1308
MMS 4                   
1 40485U 15011D   26094.25002315 -.00001255  00000+0  00000+0 0  9990
2 40485  71.1349 349.8050 8385972 165.8256 316.5180  0.28338570  1306
ASTROSAT                
1 40930U 15052A   26093.34722861  .00002768  00000+0  25573-3 0  9999
2 40930   5.9980 334.0049 0007607  42.4365 317.6351 14.82370020568705
DAMPE                   
1 41173U 15078A   26094.23250809  .00003040  00000+0  10526-3 0  9990
2 41173  97.4578  99.3415 0011625 347.4899  12.6051 15.30596810573231
PISAT                   
1 41784U 16059B   26093.96291347  .00001947  00000+0  33903-3 0  9997
2 41784  97.8192  97.6114 0030579  83.0677 277.4006 14.68843739508849
HXMT (HUIYAN)           
1 42758U 17034A   26094.24836931  .00011732  00000+0  57337-3 0  9999
2 42758  43.0139 234.5401 0030984  34.3812 325.9034 15.17813161486426
FLYING LAPTOP           
1 42831U 17042G   26094.31711067  .00003613  00000+0  28863-3 0  9991
2 42831  97.4360 252.8659 0019782  15.9149 344.2693 15.00697073475377
ZHANGHENG 1-01 (CSES-1) 
1 43194U 18015C   26094.25081943  .00016521  00000+0  74497-3 0  9997
2 43194  97.6799 258.4633 0018676 149.2414 210.9919 15.20946705453400
SALSAT                  
1 46495U 20068K   26093.94381268  .00015678  00000+0  56347-3 0  9999
2 46495  97.8863  92.5537 0009436 192.6370 167.4633 15.28700775304012
IXPE                    
1 49954U 21121A   26094.25002315  .00017215  00000+0  98247-3 0  9995
2 49954   0.2281 156.4045 0007550  41.3593 100.6015 15.09567417  5589
